[
  {
    "name": "ONEWEB-0130",
    "noradId": "47276",
    "line1": "1 47276U 20100U   26181.91256588  .00000436  00000+0  11762-2 0  9992",
    "line2": "2 47276  87.8957 347.9226 0001854  97.1100 263.0239 13.12442042266441"
  },
  {
    "name": "ONEWEB-0131",
    "noradId": "47277",
    "line1": "1 47277U 20100V   26181.90917646  .00000241  00000+0  63583-3 0  9994",
    "line2": "2 47277  87.8946 347.9402 0001690  96.9820 263.1501 13.12443253266482"
  },
  {
    "name": "ONEWEB-0132",
    "noradId": "47278",
    "line1": "1 47278U 20100W   26181.86172624 -.00000186  00000+0 -55246-3 0  9996",
    "line2": "2 47278  87.8948 347.9516 0001770  94.6002 265.5329 13.12440891266374"
  },
  {
    "name": "ONEWEB-0133",
    "noradId": "47279",
    "line1": "1 47279U 20100X   26181.95476921 -.00000394  00000+0 -11306-2 0  9993",
    "line2": "2 47279  87.8961 347.9108 0001680  95.5639 264.5682 13.12443287266545"
  },
  {
    "name": "ONEWEB-0134",
    "noradId": "47280",
    "line1": "1 47280U 20100Y   26181.46698981  .00000217  00000+0  56751-3 0  9999",
    "line2": "2 47280  87.8960 348.0047 0001849 102.2436 257.8900 13.12440910266456"
  },
  {
    "name": "ONEWEB-0135",
    "noradId": "47281",
    "line1": "1 47281U 20100Z   26181.89561694  .00000101  00000+0  24455-3 0  9995",
    "line2": "2 47281  87.8947 347.9408 0001739 102.5618 257.5705 13.12443212266531"
  },
  {
    "name": "ONEWEB-0136",
    "noradId": "47282",
    "line1": "1 47282U 20100AA  26181.91425516  .00000425  00000+0  11458-2 0  9998",
    "line2": "2 47282  87.8956 347.9193 0001882 104.4240 255.7097 13.12441731266464"
  },
  {
    "name": "ONEWEB-0137",
    "noradId": "47283",
    "line1": "1 47283U 20100AB  26181.49070901 -.00000374  00000+0 -10757-2 0  9992",
    "line2": "2 47283  87.8961 348.0146 0001918  89.5976 270.5372 13.12443114266312"
  },
  {
    "name": "ONEWEB-0138",
    "noradId": "47284",
    "line1": "1 47284U 20100AC  26181.46868846  .00000185  00000+0  47810-3 0  9992",
    "line2": "2 47284  87.8955 348.0237 0001907 100.2479 259.8865 13.12441134266399"
  },
  {
    "name": "ONEWEB-0139",
    "noradId": "47285",
    "line1": "1 47285U 20100AD  26181.89067728 -.00000007  00000+0 -54260-4 0  9993",
    "line2": "2 47285  87.8955 347.9261 0001863  93.9124 266.2218 13.12443127266524"
  },
  {
    "name": "ONEWEB-0140",
    "noradId": "47286",
    "line1": "1 47286U 20100AE  26181.92103117  .00000306  00000+0  81460-3 0  9992",
    "line2": "2 47286  87.8955 347.9109 0001658  95.5759 264.5559 13.12441292266496"
  },
  {
    "name": "ONEWEB-0141",
    "noradId": "47287",
    "line1": "1 47287U 20100AF  26181.96663271 -.00000161  00000+0 -48317-3 0  9994",
    "line2": "2 47287  87.8956 347.9071 0002021  86.6772 273.4588 13.12443469266485"
  },
  {
    "name": "ONEWEB-0142",
    "noradId": "47288",
    "line1": "1 47288U 20100AG  26181.95505881 -.00000394  00000+0 -11295-2 0  9998",
    "line2": "2 47288  87.8951 347.9298 0002255  92.8439 267.2948 13.12443917266478"
  },
  {
    "name": "ONEWEB-0143",
    "noradId": "47289",
    "line1": "1 47289U 20100AH  26181.88883977 -.00000130  00000+0 -39741-3 0  9991",
    "line2": "2 47289  87.8952 347.9427 0001847  92.3715 267.7625 13.12443811266449"
  },
  {
    "name": "ONEWEB-0144",
    "noradId": "47290",
    "line1": "1 47290U 20100AJ  26181.86003602 -.00000173  00000+0 -51697-3 0  9991",
    "line2": "2 47290  87.8959 347.9228 0002088 100.9354 259.2010 13.12441072266362"
  },
  {
    "name": "ONEWEB-0145",
    "noradId": "47291",
    "line1": "1 47291U 20100AK  26181.90748061  .00000395  00000+0  10634-2 0  9991",
    "line2": "2 47291  87.8949 347.9398 0001915  94.3605 265.7743 13.12442364266565"
  },
  {
    "name": "ONEWEB-0146",
    "noradId": "47292",
    "line1": "1 47292U 20100AL  26181.90409326  .00000356  00000+0  95380-3 0  9999",
    "line2": "2 47292  87.8956 347.9333 0001517  87.8106 272.3197 13.12442836266475"
  },
  {
    "name": "ONEWEB-0147",
    "noradId": "47293",
    "line1": "1 47293U 20100AM  26181.48901638 -.00000420  00000+0 -12040-2 0  9991",
    "line2": "2 47293  87.8956 347.9976 0001765  97.6165 262.5164 13.12442943266315"
  },
  {
    "name": "ONEWEB-0115",
    "noradId": "48042",
    "line1": "1 48042U 21025A   26181.81150698  .00000047  00000+0  93184-4 0  9993",
    "line2": "2 48042  87.8969 317.5112 0001801  98.1707 261.9627 13.13471301255389"
  },
  {
    "name": "ONEWEB-0152",
    "noradId": "48043",
    "line1": "1 48043U 21025B   26181.82504569  .00000193  00000+0  49421-3 0  9991",
    "line2": "2 48043  87.8975 317.5059 0001710  98.0600 262.0724 13.13470282255340"
  },
  {
    "name": "ONEWEB-0153",
    "noradId": "48044",
    "line1": "1 48044U 21025C   26181.42214094 -.00000190  00000+0 -55634-3 0  9991",
    "line2": "2 48044  87.8966 317.5880 0001952  98.6933 261.4417 13.13471355255283"
  },
  {
    "name": "ONEWEB-0154",
    "noradId": "48045",
    "line1": "1 48045U 21025D   26181.79964768 -.00000198  00000+0 -57702-3 0  9998",
    "line2": "2 48045  87.8976 317.5111 0001738 103.4725 256.6598 13.13470128255292"
  },
  {
    "name": "ONEWEB-0116",
    "noradId": "48046",
    "line1": "1 48046U 21025E   26181.83860425  .00000176  00000+0  44667-3 0  9999",
    "line2": "2 48046  87.8978 317.5004 0001754  99.4510 260.6817 13.13471392255440"
  },
  {
    "name": "ONEWEB-0150",
    "noradId": "48047",
    "line1": "1 48047U 21025F   26181.43399942 -.00001862  00000+0 -51335-2 0  9991",
    "line2": "2 48047  87.8972 317.5777 0001825  90.3725 269.7613 13.13481569255282"
  },
  {
    "name": "ONEWEB-0107",
    "noradId": "48048",
    "line1": "1 48048U 21025G   26181.81658334  .00000138  00000+0  34341-3 0  9999",
    "line2": "2 48048  87.8975 317.4982 0002104  99.7112 260.4255 13.13470707255313"
  },
  {
    "name": "ONEWEB-0101",
    "noradId": "48049",
    "line1": "1 48049U 21025H   26181.77934612 -.00000417  00000+0 -11758-2 0  9999",
    "line2": "2 48049  87.8968 317.5199 0001914 102.8543 257.2800 13.13471121255286"
  },
  {
    "name": "ONEWEB-0113",
    "noradId": "48050",
    "line1": "1 48050U 21025J   26181.79931646 -.00000217  00000+0 -62658-3 0  9991",
    "line2": "2 48050  87.8969 317.4250 0001833  94.7245 265.4094 13.13893368255393"
  },
  {
    "name": "ONEWEB-0112",
    "noradId": "48051",
    "line1": "1 48051U 21025K   26181.36459245  .00000346  00000+0  91345-3 0  9991",
    "line2": "2 48051  87.8976 317.5863 0001989 105.1942 254.9408 13.13471390255328"
  },
  {
    "name": "ONEWEB-0156",
    "noradId": "48052",
    "line1": "1 48052U 21025L   26181.44925214  .00000176  00000+0  44820-3 0  9992",
    "line2": "2 48052  87.8976 317.5793 0002022  97.5076 262.6283 13.13472508255310"
  },
  {
    "name": "ONEWEB-0161",
    "noradId": "48053",
    "line1": "1 48053U 21025M   26181.80471934 -.00000282  00000+0 -80660-3 0  9990",
    "line2": "2 48053  87.8975 317.5098 0002054  98.4955 261.6407 13.13470832255291"
  }
]