OBJECT_NAME,OBJECT_ID,EPOCH,MEAN_MOTION,ECCENTRICITY,INCLINATION,RA_OF_ASC_NODE,ARG_OF_PERICENTER,MEAN_ANOMALY,EPHEMERIS_TYPE,CLASSIFICATION_TYPE,NORAD_CAT_ID,ELEMENT_SET_NO,REV_AT_EPOCH,BSTAR,MEAN_MOTION_DOT,MEAN_MOTION_DDOT
ONEWEB-0130,2020-100U,2026-06-30T21:54:05.692032,13.12442042,.00018545,87.8957,347.9226,97.1100,263.0239,0,U,47276,999,26644,.11761581E-2,.436E-5,0
ONEWEB-0131,2020-100V,2026-06-30T21:49:12.846144,13.12443253,.00016905,87.8946,347.9402,96.9820,263.1501,0,U,47277,999,26648,.63583159E-3,.241E-5,0
ONEWEB-0132,2020-100W,2026-06-30T20:40:53.147136,13.12440891,.00017704,87.8948,347.9516,94.6002,265.5329,0,U,47278,999,26637,-.5524551E-3,-.186E-5,0
ONEWEB-0133,2020-100X,2026-06-30T22:54:52.059744,13.12443287,.00016802,87.8961,347.9108,95.5639,264.5682,0,U,47279,999,26654,-.11305753E-2,-.394E-5,0
ONEWEB-0134,2020-100Y,2026-06-30T11:12:27.919584,13.12440910,.00018496,87.8960,348.0047,102.2436,257.8900,0,U,47280,999,26645,.56751106E-3,.217E-5,0
ONEWEB-0135,2020-100Z,2026-06-30T21:29:41.303616,13.12443212,.00017393,87.8947,347.9408,102.5618,257.5705,0,U,47281,999,26653,.24455038E-3,.101E-5,0
ONEWEB-0136,2020-100AA,2026-06-30T21:56:31.645824,13.12441731,.00018822,87.8956,347.9193,104.4240,255.7097,0,U,47282,999,26646,.11457892E-2,.425E-5,0
ONEWEB-0137,2020-100AB,2026-06-30T11:46:37.258464,13.12443114,.00019183,87.8961,348.0146,89.5976,270.5372,0,U,47283,999,26631,-.10756644E-2,-.374E-5,0
ONEWEB-0138,2020-100AC,2026-06-30T11:14:54.682944,13.12441134,.00019071,87.8955,348.0237,100.2479,259.8865,0,U,47284,999,26639,.47810225E-3,.185E-5,0
ONEWEB-0139,2020-100AD,2026-06-30T21:22:34.516992,13.12443127,.00018634,87.8955,347.9261,93.9124,266.2218,0,U,47285,999,26652,-.54259633E-4,-.7E-7,0
ONEWEB-0140,2020-100AE,2026-06-30T22:06:17.093088,13.12441292,.00016584,87.8955,347.9109,95.5759,264.5559,0,U,47286,999,26649,.81460109E-3,.306E-5,0
ONEWEB-0141,2020-100AF,2026-06-30T23:11:57.066144,13.12443469,.00020211,87.8956,347.9071,86.6772,273.4588,0,U,47287,999,26648,-.48316884E-3,-.161E-5,0
ONEWEB-0142,2020-100AG,2026-06-30T22:55:17.081184,13.12443917,.00022556,87.8951,347.9298,92.8439,267.2948,0,U,47288,999,26647,-.11295421E-2,-.394E-5,0
ONEWEB-0143,2020-100AH,2026-06-30T21:19:55.756128,13.12443811,.00018478,87.8952,347.9427,92.3715,267.7625,0,U,47289,999,26644,-.39740784E-3,-.13E-5,0
ONEWEB-0144,2020-100AJ,2026-06-30T20:38:27.112128,13.12441072,.00020883,87.8959,347.9228,100.9354,259.2010,0,U,47290,999,26636,-.51696699E-3,-.173E-5,0
ONEWEB-0145,2020-100AK,2026-06-30T21:46:46.324704,13.12442364,.00019153,87.8949,347.9398,94.3605,265.7743,0,U,47291,999,26656,.10633889E-2,.395E-5,0
ONEWEB-0146,2020-100AL,2026-06-30T21:41:53.657664,13.12442836,.00015179,87.8956,347.9333,87.8106,272.3197,0,U,47292,999,26647,.95380443E-3,.356E-5,0
ONEWEB-0147,2020-100AM,2026-06-30T11:44:11.015232,13.12442943,.00017651,87.8956,347.9976,97.6165,262.5164,0,U,47293,999,26631,-.12040347E-2,-.42E-5,0
ONEWEB-0115,2021-025A,2026-06-30T19:28:34.203072,13.13471301,.00018012,87.8969,317.5112,98.1707,261.9627,0,U,48042,999,25538,.93183573E-4,.47E-6,0
ONEWEB-0152,2021-025B,2026-06-30T19:48:03.947616,13.13470282,.00017108,87.8975,317.5059,98.0600,262.0724,0,U,48043,999,25534,.49420934E-3,.193E-5,0
ONEWEB-0153,2021-025C,2026-06-30T10:07:52.977216,13.13471355,.00019525,87.8966,317.5880,98.6933,261.4417,0,U,48044,999,25528,-.55634297E-3,-.19E-5,0
ONEWEB-0154,2021-025D,2026-06-30T19:11:29.559552,13.13470128,.00017383,87.8976,317.5111,103.4725,256.6598,0,U,48045,999,25529,-.57702305E-3,-.198E-5,0
ONEWEB-0116,2021-025E,2026-06-30T20:07:35.407200,13.13471392,.00017547,87.8978,317.5004,99.4510,260.6817,0,U,48046,999,25544,.44666779E-3,.176E-5,0
ONEWEB-0150,2021-025F,2026-06-30T10:24:57.549888,13.13481569,.00018258,87.8972,317.5777,90.3725,269.7613,0,U,48047,999,25528,-.51335071E-2,-.1862E-4,0
ONEWEB-0107,2021-025G,2026-06-30T19:35:52.800576,13.13470707,.00021046,87.8975,317.4982,99.7112,260.4255,0,U,48048,999,25531,.34341081E-3,.138E-5,0
ONEWEB-0101,2021-025H,2026-06-30T18:42:15.504768,13.13471121,.0001914,87.8968,317.5199,102.8543,257.2800,0,U,48049,999,25528,-.11757538E-2,-.417E-5,0
ONEWEB-0113,2021-025J,2026-06-30T19:11:00.942144,13.13893368,.00018332,87.8969,317.4250,94.7245,265.4094,0,U,48050,999,25539,-.62657524E-3,-.217E-5,0
ONEWEB-0112,2021-025K,2026-06-30T08:45:00.787680,13.13471390,.00019898,87.8976,317.5863,105.1942,254.9408,0,U,48051,999,25532,.91345111E-3,.346E-5,0
ONEWEB-0156,2021-025L,2026-06-30T10:46:55.384896,13.13472508,.00020221,87.8976,317.5793,97.5076,262.6283,0,U,48052,999,25531,.44820178E-3,.176E-5,0
ONEWEB-0161,2021-025M,2026-06-30T19:18:47.750976,13.13470832,.0002054,87.8975,317.5098,98.4955,261.6407,0,U,48053,999,25529,-.80660105E-3,-.282E-5,0
